TEIKYOSAT-4 (OORURI)    
1 49396U 21102B   26068.67534185  .00002438  00000+0  15740-3 0  9994
2 49396  97.3797 101.9931 0010345 276.5421  83.4630 15.09119208237719
STARLINK-4723           
1 53797U 22111AA  26068.83101207  .00000434  00000+0  45329-4 0  9999
2 53797  53.2164 273.0518 0001367  89.5075 270.6074 15.08844385193703
