[{"OBJECT_NAME":"TEIKYOSAT-4 (OORURI)","OBJECT_ID":"2021-102B","EPOCH":"2026-03-09T16:12:29.535840","MEAN_MOTION":15.09119208,"ECCENTRICITY":0.00103447,"INCLINATION":97.3797,"RA_OF_ASC_NODE":101.9931,"ARG_OF_PERICENTER":276.5421,"MEAN_ANOMALY":83.463,"EPHEMERIS_TYPE":0,"CLASSIFICATION_TYPE":"U","NORAD_CAT_ID":49396,"ELEMENT_SET_NO":999,"REV_AT_EPOCH":23771,"BSTAR":0.00015739844,"MEAN_MOTION_DOT":2.438e-5,"MEAN_MOTION_DDOT":0},{"OBJECT_NAME":"STARLINK-4723","OBJECT_ID":"2022-111AA","EPOCH":"2026-03-09T19:56:39.443712","MEAN_MOTION":15.08844385,"ECCENTRICITY":0.00013674,"INCLINATION":53.2164,"RA_OF_ASC_NODE":273.0518,"ARG_OF_PERICENTER":89.5075,"MEAN_ANOMALY":270.6074,"EPHEMERIS_TYPE":0,"CLASSIFICATION_TYPE":"U","NORAD_CAT_ID":53797,"ELEMENT_SET_NO":999,"REV_AT_EPOCH":19370,"BSTAR":4.5328823e-5,"MEAN_MOTION_DOT":4.34e-6,"MEAN_MOTION_DDOT":0}]
